GPS BIII-9  (PRN 20)    
1 67588U 26017A   26060.00680633  .00000018  00000+0  00000+0 0  9997
2 67588  55.0163  93.0952 0001376  22.1631 337.9150  2.00560915429445
